{"fetched_at":"2026-07-18T06:27:45.816Z","source":"https://celestrak.org/NORAD/elements/gp.php?GROUP=oneweb&FORMAT=JSON","constellation":"oneweb","records":[{"OBJECT_NAME":"ONEWEB-0320","OBJECT_ID":"2021-083E","EPOCH":"2026-07-17T21:24:41.954400","CLASSIFICATION_TYPE":"U","MEAN_MOTION":13.18687561,"ECCENTRICITY":0.0001958,"INCLINATION":87.9192,"RA_OF_ASC_NODE":329.3544,"ARG_OF_PERICENTER":99.3525,"MEAN_ANOMALY":260.7828,"EPHEMERIS_TYPE":0,"NORAD_CAT_ID":49190,"ELEMENT_SET_NO":999,"REV_AT_EPOCH":23402,"BSTAR":-0.000085327824,"MEAN_MOTION_DOT":-2.1e-7,"MEAN_MOTION_DDOT":0},{"OBJECT_NAME":"ONEWEB-0321","OBJECT_ID":"2021-083F","EPOCH":"2026-07-17T15:43:35.233824","CLASSIFICATION_TYPE":"U","MEAN_MOTION":13.20773066,"ECCENTRICITY":0.00021546,"INCLINATION":87.9181,"RA_OF_ASC_NODE":268.3633,"ARG_OF_PERICENTER":104.7539,"MEAN_ANOMALY":255.3833,"EPHEMERIS_TYPE":0,"NORAD_CAT_ID":49191,"ELEMENT_SET_NO":999,"REV_AT_EPOCH":24085,"BSTAR":-0.0001203253,"MEAN_MOTION_DOT":-3.6e-7,"MEAN_MOTION_DDOT":0},{"OBJECT_NAME":"ONEWEB-0322","OBJECT_ID":"2021-083G","EPOCH":"2026-07-17T20:31:10.058592","CLASSIFICATION_TYPE":"U","MEAN_MOTION":13.13470013,"ECCENTRICITY":0.0002089,"INCLINATION":87.8978,"RA_OF_ASC_NODE":314.1324,"ARG_OF_PERICENTER":111.5894,"MEAN_ANOMALY":248.5457,"EPHEMERIS_TYPE":0,"NORAD_CAT_ID":49192,"ELEMENT_SET_NO":999,"REV_AT_EPOCH":23494,"BSTAR":0.00077944816,"MEAN_MOTION_DOT":0.00000297,"MEAN_MOTION_DDOT":0},{"OBJECT_NAME":"ONEWEB-0324","OBJECT_ID":"2021-083H","EPOCH":"2026-07-17T20:45:52.691616","CLASSIFICATION_TYPE":"U","MEAN_MOTION":13.18686531,"ECCENTRICITY":0.00020748,"INCLINATION":87.9201,"RA_OF_ASC_NODE":329.3508,"ARG_OF_PERICENTER":94.858,"MEAN_ANOMALY":265.2789,"EPHEMERIS_TYPE":0,"NORAD_CAT_ID":49193,"ELEMENT_SET_NO":999,"REV_AT_EPOCH":23404,"BSTAR":-0.000014626232,"MEAN_MOTION_DOT":7e-8,"MEAN_MOTION_DDOT":0},{"OBJECT_NAME":"ONEWEB-0325","OBJECT_ID":"2021-083J","EPOCH":"2026-07-17T20:50:43.129536","CLASSIFICATION_TYPE":"U","MEAN_MOTION":13.18687172,"ECCENTRICITY":0.00018507,"INCLINATION":87.9191,"RA_OF_ASC_NODE":329.3555,"ARG_OF_PERICENTER":99.3063,"MEAN_ANOMALY":260.8279,"EPHEMERIS_TYPE":0,"NORAD_CAT_ID":49194,"ELEMENT_SET_NO":999,"REV_AT_EPOCH":23405,"BSTAR":0.000017111106,"MEAN_MOTION_DOT":2e-7,"MEAN_MOTION_DDOT":0},{"OBJECT_NAME":"ONEWEB-0326","OBJECT_ID":"2021-083K","EPOCH":"2026-07-17T21:12:47.918016","CLASSIFICATION_TYPE":"U","MEAN_MOTION":13.18686201,"ECCENTRICITY":0.00016453,"INCLINATION":87.9199,"RA_OF_ASC_NODE":329.3527,"ARG_OF_PERICENTER":94.3824,"MEAN_ANOMALY":265.7496,"EPHEMERIS_TYPE":0,"NORAD_CAT_ID":49195,"ELEMENT_SET_NO":999,"REV_AT_EPOCH":23404,"BSTAR":0.00011301185,"MEAN_MOTION_DOT":5.7e-7,"MEAN_MOTION_DDOT":0},{"OBJECT_NAME":"ONEWEB-0327","OBJECT_ID":"2021-083L","EPOCH":"2026-07-17T21:12:23.756256","CLASSIFICATION_TYPE":"U","MEAN_MOTION":13.18686106,"ECCENTRICITY":0.00014906,"INCLINATION":87.9191,"RA_OF_ASC_NODE":329.3546,"ARG_OF_PERICENTER":96.781,"MEAN_ANOMALY":263.3492,"EPHEMERIS_TYPE":0,"NORAD_CAT_ID":49196,"ELEMENT_SET_NO":999,"REV_AT_EPOCH":23406,"BSTAR":-0.000033599679,"MEAN_MOTION_DOT":0,"MEAN_MOTION_DDOT":0},{"OBJECT_NAME":"ONEWEB-0328","OBJECT_ID":"2021-083M","EPOCH":"2026-07-17T18:26:50.762112","CLASSIFICATION_TYPE":"U","MEAN_MOTION":13.13469842,"ECCENTRICITY":0.00020567,"INCLINATION":87.8989,"RA_OF_ASC_NODE":314.1257,"ARG_OF_PERICENTER":96.8026,"MEAN_ANOMALY":263.3337,"EPHEMERIS_TYPE":0,"NORAD_CAT_ID":49197,"ELEMENT_SET_NO":999,"REV_AT_EPOCH":23491,"BSTAR":0.00075107167,"MEAN_MOTION_DOT":0.00000287,"MEAN_MOTION_DDOT":0},{"OBJECT_NAME":"ONEWEB-0331","OBJECT_ID":"2021-083N","EPOCH":"2026-07-17T21:02:52.375776","CLASSIFICATION_TYPE":"U","MEAN_MOTION":13.18684309,"ECCENTRICITY":0.00016848,"INCLINATION":87.9201,"RA_OF_ASC_NODE":329.3481,"ARG_OF_PERICENTER":89.7559,"MEAN_ANOMALY":270.3766,"EPHEMERIS_TYPE":0,"NORAD_CAT_ID":49198,"ELEMENT_SET_NO":999,"REV_AT_EPOCH":23405,"BSTAR":0.000037775213,"MEAN_MOTION_DOT":2.8e-7,"MEAN_MOTION_DDOT":0},{"OBJECT_NAME":"ONEWEB-0333","OBJECT_ID":"2021-083P","EPOCH":"2026-07-17T20:09:13.601664","CLASSIFICATION_TYPE":"U","MEAN_MOTION":13.13470184,"ECCENTRICITY":0.00018926,"INCLINATION":87.8984,"RA_OF_ASC_NODE":314.1347,"ARG_OF_PERICENTER":100.0139,"MEAN_ANOMALY":260.1204,"EPHEMERIS_TYPE":0,"NORAD_CAT_ID":49199,"ELEMENT_SET_NO":999,"REV_AT_EPOCH":23493,"BSTAR":0.00056099926,"MEAN_MOTION_DOT":0.00000218,"MEAN_MOTION_DDOT":0},{"OBJECT_NAME":"ONEWEB-0334","OBJECT_ID":"2021-083Q","EPOCH":"2026-07-17T21:31:27.394176","CLASSIFICATION_TYPE":"U","MEAN_MOTION":13.20769338,"ECCENTRICITY":0.00025432,"INCLINATION":87.9185,"RA_OF_ASC_NODE":268.3254,"ARG_OF_PERICENTER":114.5265,"MEAN_ANOMALY":245.6133,"EPHEMERIS_TYPE":0,"NORAD_CAT_ID":49200,"ELEMENT_SET_NO":999,"REV_AT_EPOCH":24084,"BSTAR":0.000067238016,"MEAN_MOTION_DOT":4e-7,"MEAN_MOTION_DDOT":0},{"OBJECT_NAME":"ONEWEB-0335","OBJECT_ID":"2021-083R","EPOCH":"2026-07-17T20:01:54.649920","CLASSIFICATION_TYPE":"U","MEAN_MOTION":13.13469283,"ECCENTRICITY":0.00018194,"INCLINATION":87.898,"RA_OF_ASC_NODE":314.1333,"ARG_OF_PERICENTER":95.9739,"MEAN_ANOMALY":264.1597,"EPHEMERIS_TYPE":0,"NORAD_CAT_ID":49201,"ELEMENT_SET_NO":999,"REV_AT_EPOCH":23494,"BSTAR":0.00043868169,"MEAN_MOTION_DOT":0.00000173,"MEAN_MOTION_DDOT":0},{"OBJECT_NAME":"ONEWEB-0336","OBJECT_ID":"2021-083S","EPOCH":"2026-07-17T19:20:27.655296","CLASSIFICATION_TYPE":"U","MEAN_MOTION":13.13468678,"ECCENTRICITY":0.00018242,"INCLINATION":87.8978,"RA_OF_ASC_NODE":314.134,"ARG_OF_PERICENTER":91.8796,"MEAN_ANOMALY":268.2542,"EPHEMERIS_TYPE":0,"NORAD_CAT_ID":49202,"ELEMENT_SET_NO":999,"REV_AT_EPOCH":23493,"BSTAR":-0.00087112586,"MEAN_MOTION_DOT":-0.00000305,"MEAN_MOTION_DDOT":0},{"OBJECT_NAME":"ONEWEB-0337","OBJECT_ID":"2021-083T","EPOCH":"2026-07-17T19:34:54.160032","CLASSIFICATION_TYPE":"U","MEAN_MOTION":13.13469408,"ECCENTRICITY":0.00020343,"INCLINATION":87.8978,"RA_OF_ASC_NODE":314.1376,"ARG_OF_PERICENTER":94.6161,"MEAN_ANOMALY":265.5201,"EPHEMERIS_TYPE":0,"NORAD_CAT_ID":49203,"ELEMENT_SET_NO":999,"REV_AT_EPOCH":23493,"BSTAR":-0.00080623624,"MEAN_MOTION_DOT":-0.00000282,"MEAN_MOTION_DDOT":0},{"OBJECT_NAME":"ONEWEB-0338","OBJECT_ID":"2021-083U","EPOCH":"2026-07-17T11:53:16.713312","CLASSIFICATION_TYPE":"U","MEAN_MOTION":13.20771202,"ECCENTRICITY":0.0002159,"INCLINATION":87.9182,"RA_OF_ASC_NODE":268.4073,"ARG_OF_PERICENTER":106.6384,"MEAN_ANOMALY":253.4986,"EPHEMERIS_TYPE":0,"NORAD_CAT_ID":49204,"ELEMENT_SET_NO":999,"REV_AT_EPOCH":24081,"BSTAR":0.000098487,"MEAN_MOTION_DOT":5.3e-7,"MEAN_MOTION_DDOT":0},{"OBJECT_NAME":"ONEWEB-0339","OBJECT_ID":"2021-083V","EPOCH":"2026-07-17T19:47:16.868256","CLASSIFICATION_TYPE":"U","MEAN_MOTION":13.13470231,"ECCENTRICITY":0.00021768,"INCLINATION":87.8973,"RA_OF_ASC_NODE":314.129,"ARG_OF_PERICENTER":105.6084,"MEAN_ANOMALY":254.5286,"EPHEMERIS_TYPE":0,"NORAD_CAT_ID":49205,"ELEMENT_SET_NO":999,"REV_AT_EPOCH":23491,"BSTAR":-0.00024777361,"MEAN_MOTION_DOT":-7.8e-7,"MEAN_MOTION_DDOT":0}]}
